[
    {
        "Altitude(m)": 604234.6025813308,
        "Argument of Periapsis(deg)": 0.0,
        "Eccentricity": 0.0,
        "Inclination(deg)": 60.0,
        "Latitude(deg)": 14.117197850410337,
        "Longitude(deg)": -8.27269603577635,
        "Mean Anomaly(deg)": -196.36359999999996,
        "RAAN(deg)": 280.0,
        "Satellite Name": "Test1 1242",
        "Satellite Number": 1242,
        "Semi-Major Axis(m)": 6980739.136638005,
        "Time(s)": 0
    },
    {
        "Altitude(m)": 604223.431462395,
        "Argument of Periapsis(deg)": 0.00010418945913296404,
        "Eccentricity": 0.0,
        "Inclination(deg)": 60.0,
        "Latitude(deg)": 13.582334688235472,
        "Longitude(deg)": -7.9857859846231545,
        "Mean Anomaly(deg)": -195.74349385453812,
        "RAAN(deg)": 279.99957995086027,
        "Satellite Name": "Test1 1242",
        "Satellite Number": 1242,
        "Semi-Major Axis(m)": 6980739.136638005,
        "Time(s)": 10
    },
    {
        "Altitude(m)": 604215.2156029779,
        "Argument of Periapsis(deg)": 0.0002083789182659281,
        "Eccentricity": 0.0,
        "Inclination(deg)": 60.0,
        "Latitude(deg)": 13.047023387326668,
        "Longitude(deg)": -7.700346444351349,
        "Mean Anomaly(deg)": -195.12338770907633,
        "RAAN(deg)": 279.9991599017205,
        "Satellite Name": "Test1 1242",
        "Satellite Number": 1242,
        "Semi-Major Axis(m)": 6980739.136638005,
        "Time(s)": 20
    },
    {
        "Altitude(m)": 604209.9828949918,
        "Argument of Periapsis(deg)": 0.00031256837739889213,
        "Eccentricity": 0.0,
        "Inclination(deg)": 60.0,
        "Latitude(deg)": 12.511284336435214,
        "Longitude(deg)": -7.416312701543447,
        "Mean Anomaly(deg)": -194.50328156361448,
        "RAAN(deg)": 279.9987398525808,
        "Satellite Name": "Test1 1242",
        "Satellite Number": 1242,
        "Semi-Major Axis(m)": 6980739.136638005,
        "Time(s)": 30
    },
    {
        "Altitude(m)": 604207.7598863133,
        "Argument of Periapsis(deg)": 0.0004167578365318562,
        "Eccentricity": 0.0,
        "Inclination(deg)": 60.0,
        "Latitude(deg)": 11.975137648356764,
        "Longitude(deg)": -7.1336203881561655,
        "Mean Anomaly(deg)": -193.88317541815266,
        "RAAN(deg)": 279.99831980344106,
        "Satellite Name": "Test1 1242",
        "Satellite Number": 1242,
        "Semi-Major Axis(m)": 6980739.136638005,
        "Time(s)": 40
    },
    {
        "Altitude(m)": 604208.5717649914,
        "Argument of Periapsis(deg)": 0.0005209472956648203,
        "Eccentricity": 0.0,
        "Inclination(deg)": 60.0,
        "Latitude(deg)": 11.438603173876693,
        "Longitude(deg)": -6.852206449803315,
        "Mean Anomaly(deg)": -193.2630692726908,
        "RAAN(deg)": 279.9978997543013,
        "Satellite Name": "Test1 1242",
        "Satellite Number": 1242,
        "Semi-Major Axis(m)": 6980739.136638005,
        "Time(s)": 50
    },
    {
        "Altitude(m)": 604212.442344094,
        "Argument of Periapsis(deg)": 0.0006251367547977843,
        "Eccentricity": 0.0,
        "Inclination(deg)": 60.0,
        "Latitude(deg)": 10.901700515362231,
        "Longitude(deg)": -6.572008601854995,
        "Mean Anomaly(deg)": -192.64296312722902,
        "RAAN(deg)": 279.9974797051615,
        "Satellite Name": "Test1 1242",
        "Satellite Number": 1242,
        "Semi-Major Axis(m)": 6980739.136638005,
        "Time(s)": 60
    },
    {
        "Altitude(m)": 604219.3940472822,
        "Argument of Periapsis(deg)": 0.0007293262139307483,
        "Eccentricity": 0.0,
        "Inclination(deg)": 60.0,
        "Latitude(deg)": 10.364449040016076,
        "Longitude(deg)": -6.292964786193761,
        "Mean Anomaly(deg)": -192.02285698176718,
        "RAAN(deg)": 279.9970596560218,
        "Satellite Name": "Test1 1242",
        "Satellite Number": 1242,
        "Semi-Major Axis(m)": 6980739.136638005,
        "Time(s)": 70
    },
    {
        "Altitude(m)": 604229.4478949597,
        "Argument of Periapsis(deg)": 0.0008335156730637124,
        "Eccentricity": 0.0,
        "Inclination(deg)": 60.0,
        "Latitude(deg)": 9.826867892809044,
        "Longitude(deg)": -6.015014141474426,
        "Mean Anomaly(deg)": -191.40275083630536,
        "RAAN(deg)": 279.996639606882,
        "Satellite Name": "Test1 1242",
        "Satellite Number": 1242,
        "Semi-Major Axis(m)": 6980739.136638005,
        "Time(s)": 80
    },
    {
        "Altitude(m)": 604242.6234912036,
        "Argument of Periapsis(deg)": 0.0009377051321966765,
        "Eccentricity": 0.0,
        "Inclination(deg)": 60.0,
        "Latitude(deg)": 9.28897600911351,
        "Longitude(deg)": -5.73809646110958,
        "Mean Anomaly(deg)": -190.7826446908435,
        "RAAN(deg)": 279.9962195577423,
        "Satellite Name": "Test1 1242",
        "Satellite Number": 1242,
        "Semi-Major Axis(m)": 6980739.136638005,
        "Time(s)": 90
    },
    {
        "Altitude(m)": 604258.9390112995,
        "Argument of Periapsis(deg)": 0.0010418945913296407,
        "Eccentricity": 0.0,
        "Inclination(deg)": 60.0,
        "Latitude(deg)": 8.750792127053813,
        "Longitude(deg)": -5.462151651825371,
        "Mean Anomaly(deg)": -190.16253854538166,
        "RAAN(deg)": 279.99579950860254,
        "Satellite Name": "Test1 1242",
        "Satellite Number": 1242,
        "Semi-Major Axis(m)": 6980739.136638005,
        "Time(s)": 100
    },
    {
        "Altitude(m)": 604278.4111900245,
        "Argument of Periapsis(deg)": 0.0011460840504626045,
        "Eccentricity": 0.0,
        "Inclination(deg)": 60.0,
        "Latitude(deg)": 8.212334799587728,
        "Longitude(deg)": -5.187120705631327,
        "Mean Anomaly(deg)": -189.54243239991987,
        "RAAN(deg)": 279.9953794594628,
        "Satellite Name": "Test1 1242",
        "Satellite Number": 1242,
        "Semi-Major Axis(m)": 6980739.136638005,
        "Time(s)": 110
    },
    {
        "Altitude(m)": 604301.0553106013,
        "Argument of Periapsis(deg)": 0.0012502735095955685,
        "Eccentricity": 0.0,
        "Inclination(deg)": 60.0,
        "Latitude(deg)": 7.67362240634025,
        "Longitude(deg)": -4.912945159426902,
        "Mean Anomaly(deg)": -188.922326254458,
        "RAAN(deg)": 279.9949594103231,
        "Satellite Name": "Test1 1242",
        "Satellite Number": 1242,
        "Semi-Major Axis(m)": 6980739.136638005,
        "Time(s)": 120
    },
    {
        "Altitude(m)": 604326.8851943791,
        "Argument of Periapsis(deg)": 0.0013544629687285324,
        "Eccentricity": 0.0,
        "Inclination(deg)": 60.0,
        "Latitude(deg)": 7.134673165205263,
        "Longitude(deg)": -4.639566555089509,
        "Mean Anomaly(deg)": -188.3022201089962,
        "RAAN(deg)": 279.99453936118334,
        "Satellite Name": "Test1 1242",
        "Satellite Number": 1242,
        "Semi-Major Axis(m)": 6980739.136638005,
        "Time(s)": 130
    },
    {
        "Altitude(m)": 604355.913191212,
        "Argument of Periapsis(deg)": 0.0014586524278614966,
        "Eccentricity": 0.0,
        "Inclination(deg)": 60.0,
        "Latitude(deg)": 6.595505143726196,
        "Longitude(deg)": -4.366927412886539,
        "Mean Anomaly(deg)": -187.68211396353433,
        "RAAN(deg)": 279.99411931204355,
        "Satellite Name": "Test1 1242",
        "Satellite Number": 1242,
        "Semi-Major Axis(m)": 6980739.136638005,
        "Time(s)": 140
    },
    {
        "Altitude(m)": 604388.150170562,
        "Argument of Periapsis(deg)": 0.0015628418869944607,
        "Eccentricity": 0.0,
        "Inclination(deg)": 60.0,
        "Latitude(deg)": 6.05613627027864,
        "Longitude(deg)": -4.094970692436168,
        "Mean Anomaly(deg)": -187.0620078180725,
        "RAAN(deg)": 279.9936992629039,
        "Satellite Name": "Test1 1242",
        "Satellite Number": 1242,
        "Semi-Major Axis(m)": 6980739.136638005,
        "Time(s)": 150
    },
    {
        "Altitude(m)": 604423.6055133472,
        "Argument of Periapsis(deg)": 0.0016670313461274247,
        "Eccentricity": 0.0,
        "Inclination(deg)": 60.0,
        "Latitude(deg)": 5.516584345066399,
        "Longitude(deg)": -3.8236392540600797,
        "Mean Anomaly(deg)": -186.4419016726107,
        "RAAN(deg)": 279.9932792137641,
        "Satellite Name": "Test1 1242",
        "Satellite Number": 1242,
        "Semi-Major Axis(m)": 6980739.136638005,
        "Time(s)": 160
    },
    {
        "Altitude(m)": 604462.287104473,
        "Argument of Periapsis(deg)": 0.0017712208052603888,
        "Eccentricity": 0.0,
        "Inclination(deg)": 60.0,
        "Latitude(deg)": 4.976867050943427,
        "Longitude(deg)": -3.55287683337121,
        "Mean Anomaly(deg)": -185.82179552714888,
        "RAAN(deg)": 279.99285916462435,
        "Satellite Name": "Test1 1242",
        "Satellite Number": 1242,
        "Semi-Major Axis(m)": 6980739.136638005,
        "Time(s)": 170
    },
    {
        "Altitude(m)": 604504.2013261439,
        "Argument of Periapsis(deg)": 0.001875410264393353,
        "Eccentricity": 0.0,
        "Inclination(deg)": 60.0,
        "Latitude(deg)": 4.4370019640826674,
        "Longitude(deg)": -3.2826275033223813,
        "Mean Anomaly(deg)": -185.20168938168703,
        "RAAN(deg)": 279.9924391154846,
        "Satellite Name": "Test1 1242",
        "Satellite Number": 1242,
        "Semi-Major Axis(m)": 6980739.136638005,
        "Time(s)": 180
    },
    {
        "Altitude(m)": 604549.3530518862,
        "Argument of Periapsis(deg)": 0.0019795997235263173,
        "Eccentricity": 0.0,
        "Inclination(deg)": 60.0,
        "Latitude(deg)": 3.8970065645029366,
        "Longitude(deg)": -3.0128351365575727,
        "Mean Anomaly(deg)": -184.58158323622524,
        "RAAN(deg)": 279.9920190663449,
        "Satellite Name": "Test1 1242",
        "Satellite Number": 1242,
        "Semi-Major Axis(m)": 6980739.136638005,
        "Time(s)": 190
    }
]